IRIDIUM 119             
1 42959U 17061E   24291.72197482  .00000435  00000+0  14827-3 0  9998
2 42959  86.3910 279.0767 0002374  98.7062 261.4403 14.34220500367742
IRIDIUM 107             
1 42960U 17061F   24292.22938596  .00000600  00000+0  20708-3 0  9994
2 42960  86.3909 278.8819 0002454  95.6355 264.5121 14.34219866367831
IRIDIUM 132             
1 42961U 17061G   24291.95665436  .00000613  00000+0  21166-3 0  9997
2 42961  86.3908 278.9800 0002625  93.8553 266.2942 14.34218455367789
IRIDIUM 136             
1 42962U 17061H   24291.70928990  .00000574  00000+0  19774-3 0  9996
2 42962  86.3911 279.0873 0002086  91.6028 268.5407 14.34219559367765
IRIDIUM 139             
1 42963U 17061J   24292.41331899 -.00000100  00000+0 -42665-4 0  9995
2 42963  86.3911 278.8447 0002571  94.7480 265.4009 14.34217379367879
IRIDIUM 125             
1 42964U 17061K   24291.49364476  .00000690  00000+0  23936-3 0  9991
2 42964  86.3912 279.2796 0002275 103.8979 256.2470 14.34218955367757
IRIDIUM 135             
1 43070U 17083A   24291.53753453  .00000613  00000+0  21168-3 0  9996
2 43070  86.4014 215.9254 0002285  70.4842 289.6601 14.34218608357058
IRIDIUM 138             
1 43071U 17083B   24291.84198391  .00001327  00000+0  46648-3 0  9998
2 43071  86.4005 215.5003 0001700  92.5192 267.6198 14.34224300357087
